[
    {
        "Altitude(m)": 704900.558899172,
        "Argument of Periapsis(deg)": 0.004556048474650827,
        "Eccentricity": 0.0,
        "Inclination(deg)": 45.0,
        "Latitude(deg)": -8.382664663932138,
        "Longitude(deg)": 51.28083590692048,
        "Mean Anomaly(deg)": -11.750313341007697,
        "RAAN(deg)": 159.9956992234167,
        "Satellite Name": "Constellation 1 725",
        "Satellite Number": 725,
        "Semi-Major Axis(m)": 7083131.272910544,
        "Time(s)": 76
    },
    {
        "Altitude(m)": 704891.174635592,
        "Argument of Periapsis(deg)": 0.004615996480896233,
        "Eccentricity": 0.0,
        "Inclination(deg)": 45.0,
        "Latitude(deg)": -8.339937488608387,
        "Longitude(deg)": 51.32048835570918,
        "Mean Anomaly(deg)": -11.689612200757836,
        "RAAN(deg)": 159.99564263425114,
        "Satellite Name": "Constellation 1 725",
        "Satellite Number": 725,
        "Semi-Major Axis(m)": 7083131.272910544,
        "Time(s)": 77
    },
    {
        "Altitude(m)": 704881.8080662533,
        "Argument of Periapsis(deg)": 0.004675944487141638,
        "Eccentricity": 0.0,
        "Inclination(deg)": 45.0,
        "Latitude(deg)": -8.297205309069543,
        "Longitude(deg)": 51.360131394421316,
        "Mean Anomaly(deg)": -11.6289110605079,
        "RAAN(deg)": 159.9955860450856,
        "Satellite Name": "Constellation 1 725",
        "Satellite Number": 725,
        "Semi-Major Axis(m)": 7083131.272910544,
        "Time(s)": 78
    },
    {
        "Altitude(m)": 704872.4592149748,
        "Argument of Periapsis(deg)": 0.004735892493387044,
        "Eccentricity": 0.0,
        "Inclination(deg)": 45.0,
        "Latitude(deg)": -8.254468151905002,
        "Longitude(deg)": 51.3997650732493,
        "Mean Anomaly(deg)": -11.568209920258012,
        "RAAN(deg)": 159.99552945592,
        "Satellite Name": "Constellation 1 725",
        "Satellite Number": 725,
        "Semi-Major Axis(m)": 7083131.272910544,
        "Time(s)": 79
    },
    {
        "Altitude(m)": 704863.1281054879,
        "Argument of Periapsis(deg)": 0.004795840499632449,
        "Eccentricity": 0.0,
        "Inclination(deg)": 45.0,
        "Latitude(deg)": -8.211726043686342,
        "Longitude(deg)": 51.439389442366355,
        "Mean Anomaly(deg)": -11.507508780008074,
        "RAAN(deg)": 159.99547286675443,
        "Satellite Name": "Constellation 1 725",
        "Satellite Number": 725,
        "Semi-Major Axis(m)": 7083131.272910544,
        "Time(s)": 80
    },
    {
        "Altitude(m)": 704853.8147614468,
        "Argument of Periapsis(deg)": 0.004855788505877855,
        "Eccentricity": 0.0,
        "Inclination(deg)": 45.0,
        "Latitude(deg)": -8.168979010967885,
        "Longitude(deg)": 51.47900455192616,
        "Mean Anomaly(deg)": -11.446807639758214,
        "RAAN(deg)": 159.99541627758887,
        "Satellite Name": "Constellation 1 725",
        "Satellite Number": 725,
        "Semi-Major Axis(m)": 7083131.272910544,
        "Time(s)": 81
    },
    {
        "Altitude(m)": 704844.5192064142,
        "Argument of Periapsis(deg)": 0.00491573651212326,
        "Eccentricity": 0.0,
        "Inclination(deg)": 45.0,
        "Latitude(deg)": -8.126227080286517,
        "Longitude(deg)": 51.5186102839665,
        "Mean Anomaly(deg)": -11.386106499508326,
        "RAAN(deg)": 159.9953596884233,
        "Satellite Name": "Constellation 1 725",
        "Satellite Number": 725,
        "Semi-Major Axis(m)": 7083131.272910544,
        "Time(s)": 82
    },
    {
        "Altitude(m)": 704835.2414638703,
        "Argument of Periapsis(deg)": 0.004975684518368666,
        "Eccentricity": 0.0,
        "Inclination(deg)": 45.0,
        "Latitude(deg)": -8.083470278161267,
        "Longitude(deg)": 51.558207024797085,
        "Mean Anomaly(deg)": -11.325405359258388,
        "RAAN(deg)": 159.99530309925774,
        "Satellite Name": "Constellation 1 725",
        "Satellite Number": 725,
        "Semi-Major Axis(m)": 7083131.272910544,
        "Time(s)": 83
    },
    {
        "Altitude(m)": 704825.9815572094,
        "Argument of Periapsis(deg)": 0.005035632524614072,
        "Eccentricity": 0.0,
        "Inclination(deg)": 45.0,
        "Latitude(deg)": -8.040708631094724,
        "Longitude(deg)": 51.59779465641725,
        "Mean Anomaly(deg)": -11.264704219008504,
        "RAAN(deg)": 159.99524651009213,
        "Satellite Name": "Constellation 1 725",
        "Satellite Number": 725,
        "Semi-Major Axis(m)": 7083131.272910544,
        "Time(s)": 84
    },
    {
        "Altitude(m)": 704816.7395097511,
        "Argument of Periapsis(deg)": 0.0050955805308594785,
        "Eccentricity": 0.0,
        "Inclination(deg)": 45.0,
        "Latitude(deg)": -7.997942165572017,
        "Longitude(deg)": 51.637373228904764,
        "Mean Anomaly(deg)": -11.204003078758667,
        "RAAN(deg)": 159.99518992092658,
        "Satellite Name": "Constellation 1 725",
        "Satellite Number": 725,
        "Semi-Major Axis(m)": 7083131.272910544,
        "Time(s)": 85
    },
    {
        "Altitude(m)": 704807.5153447167,
        "Argument of Periapsis(deg)": 0.005155528537104883,
        "Eccentricity": 0.0,
        "Inclination(deg)": 45.0,
        "Latitude(deg)": -7.955170908061219,
        "Longitude(deg)": 51.676942792318584,
        "Mean Anomaly(deg)": -11.143301938508705,
        "RAAN(deg)": 159.99513333176102,
        "Satellite Name": "Constellation 1 725",
        "Satellite Number": 725,
        "Semi-Major Axis(m)": 7083131.272910544,
        "Time(s)": 86
    },
    {
        "Altitude(m)": 704798.3090852463,
        "Argument of Periapsis(deg)": 0.0052154765433502885,
        "Eccentricity": 0.0,
        "Inclination(deg)": 45.0,
        "Latitude(deg)": -7.912394885013683,
        "Longitude(deg)": 51.71650339669868,
        "Mean Anomaly(deg)": -11.082600798258843,
        "RAAN(deg)": 159.99507674259544,
        "Satellite Name": "Constellation 1 725",
        "Satellite Number": 725,
        "Semi-Major Axis(m)": 7083131.272910544,
        "Time(s)": 87
    },
    {
        "Altitude(m)": 704789.120754405,
        "Argument of Periapsis(deg)": 0.005275424549595694,
        "Eccentricity": 0.0,
        "Inclination(deg)": 45.0,
        "Latitude(deg)": -7.8696141228637435,
        "Longitude(deg)": 51.75605509206661,
        "Mean Anomaly(deg)": -11.021899658008882,
        "RAAN(deg)": 159.9950201534299,
        "Satellite Name": "Constellation 1 725",
        "Satellite Number": 725,
        "Semi-Major Axis(m)": 7083131.272910544,
        "Time(s)": 88
    },
    {
        "Altitude(m)": 704779.9503751611,
        "Argument of Periapsis(deg)": 0.0053353725558411,
        "Eccentricity": 0.0,
        "Inclination(deg)": 45.0,
        "Latitude(deg)": -7.8268286480294105,
        "Longitude(deg)": 51.795597760328135,
        "Mean Anomaly(deg)": -10.961198517759046,
        "RAAN(deg)": 159.99496356426434,
        "Satellite Name": "Constellation 1 725",
        "Satellite Number": 725,
        "Semi-Major Axis(m)": 7083131.272910544,
        "Time(s)": 89
    },
    {
        "Altitude(m)": 704770.797970407,
        "Argument of Periapsis(deg)": 0.005395320562086505,
        "Eccentricity": 0.0,
        "Inclination(deg)": 45.0,
        "Latitude(deg)": -7.784038486911255,
        "Longitude(deg)": 51.83513178766191,
        "Mean Anomaly(deg)": -10.90049737750916,
        "RAAN(deg)": 159.99490697509873,
        "Satellite Name": "Constellation 1 725",
        "Satellite Number": 725,
        "Semi-Major Axis(m)": 7083131.272910544,
        "Time(s)": 90
    },
    {
        "Altitude(m)": 704761.6635629437,
        "Argument of Periapsis(deg)": 0.00545526856833191,
        "Eccentricity": 0.0,
        "Inclination(deg)": 45.0,
        "Latitude(deg)": -7.741243665893995,
        "Longitude(deg)": 51.87465705593704,
        "Mean Anomaly(deg)": -10.839796237259197,
        "RAAN(deg)": 159.99485038593318,
        "Satellite Name": "Constellation 1 725",
        "Satellite Number": 725,
        "Semi-Major Axis(m)": 7083131.272910544,
        "Time(s)": 91
    },
    {
        "Altitude(m)": 704752.5471754879,
        "Argument of Periapsis(deg)": 0.005515216574577317,
        "Eccentricity": 0.0,
        "Inclination(deg)": 45.0,
        "Latitude(deg)": -7.698444211345871,
        "Longitude(deg)": 51.914173615101305,
        "Mean Anomaly(deg)": -10.779095097009336,
        "RAAN(deg)": 159.9947937967676,
        "Satellite Name": "Constellation 1 725",
        "Satellite Number": 725,
        "Semi-Major Axis(m)": 7083131.272910544,
        "Time(s)": 92
    },
    {
        "Altitude(m)": 704743.4488306745,
        "Argument of Periapsis(deg)": 0.005575164580822722,
        "Eccentricity": 0.0,
        "Inclination(deg)": 45.0,
        "Latitude(deg)": -7.655640149618614,
        "Longitude(deg)": 51.9536815150843,
        "Mean Anomaly(deg)": -10.718393956759474,
        "RAAN(deg)": 159.99473720760204,
        "Satellite Name": "Constellation 1 725",
        "Satellite Number": 725,
        "Semi-Major Axis(m)": 7083131.272910544,
        "Time(s)": 93
    },
    {
        "Altitude(m)": 704734.3685510522,
        "Argument of Periapsis(deg)": 0.005635112587068129,
        "Eccentricity": 0.0,
        "Inclination(deg)": 45.0,
        "Latitude(deg)": -7.612831507047676,
        "Longitude(deg)": 51.99318080579778,
        "Mean Anomaly(deg)": -10.657692816509536,
        "RAAN(deg)": 159.99468061843646,
        "Satellite Name": "Constellation 1 725",
        "Satellite Number": 725,
        "Semi-Major Axis(m)": 7083131.272910544,
        "Time(s)": 94
    }
]